start=new Date('%Y-%m-27T00:00:00.000Z').valueOf();
sats=[{"ELEMENT_SET_NO":"999","SEMIMAJOR_AXIS":"6925.370","NORAD_CAT_ID":"48130","SITE":"AFETR","ECCENTRICITY":"0.00022250","LAUNCH_DATE":"2021-04-07","DECAY_DATE":null,"ARG_OF_PERICENTER":"86.2630","TLE_LINE2":"2 48130  53.0590  72.0581 0002225  86.2630 273.8614 15.06392940 22036","MEAN_ELEMENT_THEORY":"SGP4","RCS_SIZE":"LARGE","REV_AT_EPOCH":"2203","MEAN_MOTION_DOT":"-0.00001102","CENTER_NAME":"EARTH","FILE":"3101032","BSTAR":"-0.00005510400000","REF_FRAME":"TEME","EPHEMERIS_TYPE":"0","OBJECT_TYPE":"PAYLOAD","EPOCH":"2021-08-21T22:15:42.920640","OBJECT_ID":"2021-027AQ","APOAPSIS":"548.776","PERIOD":"95.593","GP_ID":"183214232","RA_OF_ASC_NODE":"72.0581","TLE_LINE1":"1 48130U 21027AQ  21233.92758010 -.00001102  00000-0 -55104-4 0  9996","MEAN_MOTION_DDOT":"0.0000000000000","MEAN_ANOMALY":"273.8614","COUNTRY_CODE":"US","CLASSIFICATION_TYPE":"U","TIME_SYSTEM":"UTC","INCLINATION":"53.0590","PERIAPSIS":"545.694","MEAN_MOTION":"15.06392940","OBJECT_NAME":"STARLINK-2472"},{"TIME_SYSTEM":"UTC","CLASSIFICATION_TYPE":"U","INCLINATION":"53.0562","PERIAPSIS":"545.900","OBJECT_NAME":"STARLINK-2473","MEAN_MOTION":"15.06403885","PERIOD":"95.592","APOAPSIS":"548.503","GP_ID":"183214982","OBJECT_ID":"2021-027AR","TLE_LINE1":"1 48131U 21027AR  21233.88105353  .00000713  00000-0  66749-4 0  9990","RA_OF_ASC_NODE":"47.2845","COUNTRY_CODE":"US","MEAN_MOTION_DDOT":"0.0000000000000","MEAN_ANOMALY":"250.3119","REV_AT_EPOCH":"2237","MEAN_MOTION_DOT":"0.00000713","MEAN_ELEMENT_THEORY":"SGP4","RCS_SIZE":"LARGE","FILE":"3101032","CENTER_NAME":"EARTH","REF_FRAME":"TEME","BSTAR":"0.00006674900000","OBJECT_TYPE":"PAYLOAD","EPOCH":"2021-08-21T21:08:43.024992","EPHEMERIS_TYPE":"0","SITE":"AFETR","ECCENTRICITY":"0.00018790","LAUNCH_DATE":"2021-04-07","ELEMENT_SET_NO":"999","SEMIMAJOR_AXIS":"6925.337","NORAD_CAT_ID":"48131","DECAY_DATE":null,"ARG_OF_PERICENTER":"109.8073","TLE_LINE2":"2 48131  53.0562  47.2845 0001879 109.8073 250.3119 15.06403885 22378"},{"BSTAR":"0.00000223870000","REF_FRAME":"TEME","EPHEMERIS_TYPE":"0","OBJECT_TYPE":"PAYLOAD","EPOCH":"2021-08-21T19:04:00.302880","MEAN_ELEMENT_THEORY":"SGP4","RCS_SIZE":"LARGE","REV_AT_EPOCH":"2207","MEAN_MOTION_DOT":"-0.00000248","CENTER_NAME":"EARTH","FILE":"3101032","DECAY_DATE":null,"ARG_OF_PERICENTER":"95.3353","TLE_LINE2":"2 48132  53.0565  67.6538 0001949  95.3353 264.7858 15.06393733 22071","ELEMENT_SET_NO":"999","NORAD_CAT_ID":"48132","SEMIMAJOR_AXIS":"6925.368","SITE":"AFETR","LAUNCH_DATE":"2021-04-07","ECCENTRICITY":"0.00019490","INCLINATION":"53.0565","PERIAPSIS":"545.883","MEAN_MOTION":"15.06393733","OBJECT_NAME":"STARLINK-2474","CLASSIFICATION_TYPE":"U","TIME_SYSTEM":"UTC","RA_OF_ASC_NODE":"67.6538","TLE_LINE1":"1 48132U 21027AS  21233.79444795 -.00000248  00000-0  22387-5 0  9992","MEAN_ANOMALY":"264.7858","MEAN_MOTION_DDOT":"0.0000000000000","COUNTRY_CODE":"US","OBJECT_ID":"2021-027AS","APOAPSIS":"548.583","PERIOD":"95.593","GP_ID":"183214719"},{"GP_ID":"183213984","APOAPSIS":"548.700","PERIOD":"95.593","OBJECT_ID":"2021-027AT","COUNTRY_CODE":"US","MEAN_MOTION_DDOT":"0.0000000000000","MEAN_ANOMALY":"267.0355","TLE_LINE1":"1 48133U 21027AT  21233.85710883  .00000975  00000-0  84355-4 0  9992","RA_OF_ASC_NODE":"67.3733","TIME_SYSTEM":"UTC","CLASSIFICATION_TYPE":"U","OBJECT_NAME":"STARLINK-2475","MEAN_MOTION":"15.06392208","PERIAPSIS":"545.775","INCLINATION":"53.0564","ECCENTRICITY":"0.00021120","LAUNCH_DATE":"2021-04-07","SITE":"AFETR","NORAD_CAT_ID":"48133","SEMIMAJOR_AXIS":"6925.372","ELEMENT_SET_NO":"999","TLE_LINE2":"2 48133  53.0564  67.3733 0002112  93.0876 267.0355 15.06392208 22099","ARG_OF_PERICENTER":"93.0876","DECAY_DATE":null,"FILE":"3101032","CENTER_NAME":"EARTH","MEAN_MOTION_DOT":"0.00000975","REV_AT_EPOCH":"2209","RCS_SIZE":"LARGE","MEAN_ELEMENT_THEORY":"SGP4","EPOCH":"2021-08-21T20:34:14.202912","OBJECT_TYPE":"PAYLOAD","EPHEMERIS_TYPE":"0","REF_FRAME":"TEME","BSTAR":"0.00008435500000"},{"REF_FRAME":"TEME","BSTAR":"0.00037844000000","OBJECT_TYPE":"PAYLOAD","EPOCH":"2021-08-21T21:48:33.048576","EPHEMERIS_TYPE":"0","REV_AT_EPOCH":"2209","MEAN_MOTION_DOT":"0.00005354","MEAN_ELEMENT_THEORY":"SGP4","RCS_SIZE":"LARGE","FILE":"3101032","CENTER_NAME":"EARTH","DECAY_DATE":null,"ARG_OF_PERICENTER":"89.5943","TLE_LINE2":"2 48134  53.0563  67.1412 0002231  89.5943 270.5301 15.06363111 22099","SITE":"AFETR","LAUNCH_DATE":"2021-04-07","ECCENTRICITY":"0.00022310","ELEMENT_SET_NO":"999","NORAD_CAT_ID":"48134","SEMIMAJOR_AXIS":"6925.462","INCLINATION":"53.0563","PERIAPSIS":"545.782","OBJECT_NAME":"STARLINK-2476","MEAN_MOTION":"15.06363111","TIME_SYSTEM":"UTC","CLASSIFICATION_TYPE":"U","TLE_LINE1":"1 48134U 21027AU  21233.90871584  .00005354  00000-0  37844-3 0  9991","RA_OF_ASC_NODE":"67.1412","COUNTRY_CODE":"US","MEAN_MOTION_DDOT":"0.0000000000000","MEAN_ANOMALY":"270.5301","APOAPSIS":"548.872","PERIOD":"95.594","GP_ID":"183214733","OBJECT_ID":"2021-027AU"},{"CENTER_NAME":"EARTH","FILE":"3101032","RCS_SIZE":"LARGE","MEAN_ELEMENT_THEORY":"SGP4","MEAN_MOTION_DOT":"-0.00001244","REV_AT_EPOCH":"2201","EPHEMERIS_TYPE":"0","EPOCH":"2021-08-21T19:52:24.018528","OBJECT_TYPE":"PAYLOAD","BSTAR":"-0.00006464500000","REF_FRAME":"TEME","NORAD_CAT_ID":"48135","SEMIMAJOR_AXIS":"6925.374","ELEMENT_SET_NO":"999","ECCENTRICITY":"0.00019210","LAUNCH_DATE":"2021-04-07","SITE":"AFETR","TLE_LINE2":"2 48135  53.0558  72.5067 0001921  98.3971 261.7236 15.06391837 22011","ARG_OF_PERICENTER":"98.3971","DECAY_DATE":null,"CLASSIFICATION_TYPE":"U","TIME_SYSTEM":"UTC","MEAN_MOTION":"15.06391837","OBJECT_NAME":"STARLINK-2478","PERIAPSIS":"545.908","INCLINATION":"53.0558","OBJECT_ID":"2021-027AV","GP_ID":"183214482","PERIOD":"95.593","APOAPSIS":"548.569","MEAN_MOTION_DDOT":"0.0000000000000","MEAN_ANOMALY":"261.7236","COUNTRY_CODE":"US","RA_OF_ASC_NODE":"72.5067","TLE_LINE1":"1 48135U 21027AV  21233.82805577 -.00001244  00000-0 -64645-4 0  9998"},{"PERIAPSIS":"545.778","INCLINATION":"53.0556","OBJECT_NAME":"STARLINK-2479","MEAN_MOTION":"15.06385890","TIME_SYSTEM":"UTC","CLASSIFICATION_TYPE":"U","TLE_LINE1":"1 48136U 21027AW  21233.86817013  .00000469  00000-0  50399-4 0  9998","RA_OF_ASC_NODE":"67.3201","COUNTRY_CODE":"US","MEAN_MOTION_DDOT":"0.0000000000000","MEAN_ANOMALY":"266.2116","GP_ID":"183215220","PERIOD":"95.593","APOAPSIS":"548.736","OBJECT_ID":"2021-027AW","REF_FRAME":"TEME","BSTAR":"0.00005039900000","EPOCH":"2021-08-21T20:50:09.899232","OBJECT_TYPE":"PAYLOAD","EPHEMERIS_TYPE":"0","MEAN_MOTION_DOT":"0.00000469","REV_AT_EPOCH":"2209","RCS_SIZE":"LARGE","MEAN_ELEMENT_THEORY":"SGP4","FILE":"3101032","CENTER_NAME":"EARTH","DECAY_DATE":null,"TLE_LINE2":"2 48136  53.0556  67.3201 0002136  93.9118 266.2116 15.06385890 22092","ARG_OF_PERICENTER":"93.9118","LAUNCH_DATE":"2021-04-07","ECCENTRICITY":"0.00021360","SITE":"AFETR","SEMIMAJOR_AXIS":"6925.392","NORAD_CAT_ID":"48136","ELEMENT_SET_NO":"999"},{"EPOCH":"2021-08-21T21:28:35.863392","OBJECT_TYPE":"PAYLOAD","EPHEMERIS_TYPE":"0","REF_FRAME":"TEME","BSTAR":"-0.00005542100000","FILE":"3101032","CENTER_NAME":"EARTH","MEAN_MOTION_DOT":"-0.00001107","REV_AT_EPOCH":"2237","RCS_SIZE":"LARGE","MEAN_ELEMENT_THEORY":"SGP4","TLE_LINE2":"2 48137  53.0383  47.2891 0001813 111.4456 248.6726 15.06391809 22374","ARG_OF_PERICENTER":"111.4456","DECAY_DATE":null,"LAUNCH_DATE":"2021-04-07","ECCENTRICITY":"0.00018130","SITE":"AFETR","SEMIMAJOR_AXIS":"6925.374","NORAD_CAT_ID":"48137","ELEMENT_SET_NO":"999","OBJECT_NAME":"STARLINK-2480","MEAN_MOTION":"15.06391809","PERIAPSIS":"545.983","INCLINATION":"53.0383","TIME_SYSTEM":"UTC","CLASSIFICATION_TYPE":"U","COUNTRY_CODE":"US","MEAN_MOTION_DDOT":"0.0000000000000","MEAN_ANOMALY":"248.6726","TLE_LINE1":"1 48137U 21027AX  21233.89485953 -.00001107  00000-0 -55421-4 0  9999","RA_OF_ASC_NODE":"47.2891","GP_ID":"183213484","PERIOD":"95.593","APOAPSIS":"548.494","OBJECT_ID":"2021-027AX"},{"RCS_SIZE":"LARGE","MEAN_ELEMENT_THEORY":"SGP4","MEAN_MOTION_DOT":"0.00000630","REV_AT_EPOCH":"2210","CENTER_NAME":"EARTH","FILE":"3101032","BSTAR":"0.00006122600000","REF_FRAME":"TEME","EPHEMERIS_TYPE":"0","EPOCH":"2021-08-21T22:04:28.230816","OBJECT_TYPE":"PAYLOAD","SEMIMAJOR_AXIS":"6925.364","NORAD_CAT_ID":"48138","ELEMENT_SET_NO":"999","ECCENTRICITY":"0.00020310","LAUNCH_DATE":"2021-04-07","SITE":"AFETR","DECAY_DATE":null,"TLE_LINE2":"2 48138  53.0567  67.0931 0002031  92.9542 267.1679 15.06394916 22102","ARG_OF_PERICENTER":"92.9542","CLASSIFICATION_TYPE":"U","TIME_SYSTEM":"UTC","PERIAPSIS":"545.823","INCLINATION":"53.0567","MEAN_MOTION":"15.06394916","OBJECT_NAME":"STARLINK-2481","OBJECT_ID":"2021-027AY","GP_ID":"183214233","APOAPSIS":"548.636","PERIOD":"95.592","RA_OF_ASC_NODE":"67.0931","TLE_LINE1":"1 48138U 21027AY  21233.91977119  .00000630  00000-0  61226-4 0  9991","MEAN_MOTION_DDOT":"0.0000000000000","MEAN_ANOMALY":"267.1679","COUNTRY_CODE":"US"},{"CLASSIFICATION_TYPE":"U","TIME_SYSTEM":"UTC","INCLINATION":"53.0559","PERIAPSIS":"545.889","MEAN_MOTION":"15.06394448","OBJECT_NAME":"STARLINK-2482","OBJECT_ID":"2021-027AZ","PERIOD":"95.592","APOAPSIS":"548.572","GP_ID":"183214983","RA_OF_ASC_NODE":"47.4307","TLE_LINE1":"1 48139U 21027AZ  21233.84420689 -.00001005  00000-0 -48549-4 0  9991","MEAN_ANOMALY":"247.7031","MEAN_MOTION_DDOT":"0.0000000000000","COUNTRY_CODE":"US","MEAN_ELEMENT_THEORY":"SGP4","RCS_SIZE":"LARGE","REV_AT_EPOCH":"2237","MEAN_MOTION_DOT":"-0.00001005","CENTER_NAME":"EARTH","FILE":"3101032","BSTAR":"-0.00004854900000","REF_FRAME":"TEME","EPHEMERIS_TYPE":"0","OBJECT_TYPE":"PAYLOAD","EPOCH":"2021-08-21T20:15:39.475296","ELEMENT_SET_NO":"999","SEMIMAJOR_AXIS":"6925.366","NORAD_CAT_ID":"48139","SITE":"AFETR","LAUNCH_DATE":"2021-04-07","ECCENTRICITY":"0.00019370","DECAY_DATE":null,"ARG_OF_PERICENTER":"112.4164","TLE_LINE2":"2 48139  53.0559  47.4307 0001937 112.4164 247.7031 15.06394448 22370"}];
